     3.04           N: GNSS NAV DATA    G: GPS              RINEX VERSION / TYPE
sbf2rin-15.6.1                          20221223 000720 UTC PGM / RUN BY / DATE 
GPSA   1.9558E-08 -7.4506E-09 -5.9605E-08  1.1921E-07       IONOSPHERIC CORR    
GPSB   1.3722E+05 -1.9661E+05  6.5536E+04  1.3107E+05       IONOSPHERIC CORR    
GPUT -9.3132257462E-10-9.769962617E-15 589824 2241          TIME SYSTEM CORR    
    18                                                      LEAP SECONDS        
AMC4                                    MARKER NAME         COMMENT
40472S005                               MARKER NUMBER       COMMENT
 -1248596.2520 -4819428.2840  3976506.0340                  COMMENT
This data is provided as a public service by NASA/JPL.      COMMENT
No warranty is expressed or implied regarding suitability   COMMENT
for use.  For further information, contact:                 COMMENT
ggnops at jpl dot nasa dot gov                              COMMENT
                                                            END OF HEADER       
G26 2022 12 22 22 00 00 2.389526925981E-04 7.958078640513E-13 0.000000000000E+00
     9.500000000000E+01 8.225000000000E+01 4.759841123631E-09 2.477388307316E+00
     4.293397068977E-06 7.671885774471E-03 1.164525747299E-05 5.153620946884E+03
     4.248000000000E+05-1.359730958939E-07 2.973514167006E+00-5.401670932770E-08
     9.357139235322E-01 1.425625000000E+02 4.162500702805E-01-7.872113619416E-09
    -4.260891768959E-10 1.000000000000E+00 2.241000000000E+03 0.000000000000E+00
     2.000000000000E+00 0.000000000000E+00 6.984919309616E-09 9.500000000000E+01
     4.176180000000E+05 4.000000000000E+00
G03 2022 12 22 22 00 00-3.750221803784E-04 6.821210263297E-13 0.000000000000E+00
     2.500000000000E+01-1.304062500000E+02 3.584435020392E-09-2.686206888511E+00
    -6.657093763351E-06 4.407901666127E-03 1.222267746925E-05 5.153763286591E+03
     4.248000000000E+05-5.774199962616E-08-1.047987464542E-01-7.450580596924E-09
     9.771863066577E-01 1.503437500000E+02 1.039686147604E+00-7.377807315289E-09
     2.960837616486E-10 1.000000000000E+00 2.241000000000E+03 0.000000000000E+00
     2.000000000000E+00 0.000000000000E+00 1.862645149231E-09 2.500000000000E+01
     4.176180000000E+05 4.000000000000E+00
G20 2022 12 22 22 00 00 4.618531093001E-04-2.387423592154E-12 0.000000000000E+00
     1.900000000000E+01-1.629687500000E+02 4.433398954576E-09-5.693351767639E-01
    -8.407980203629E-06 4.668562673032E-03 9.601935744286E-06 5.153719814301E+03
     4.248000000000E+05 1.359730958939E-07-2.689047828607E-01 5.587935447693E-09
     9.466060757026E-01 1.876875000000E+02-2.980142761468E+00-7.978903781941E-09
     9.036090675161E-11 1.000000000000E+00 2.241000000000E+03 0.000000000000E+00
     2.000000000000E+00 0.000000000000E+00-8.381903171539E-09 1.900000000000E+01
     4.176180000000E+05 4.000000000000E+00
G30 2022 12 22 22 00 00-5.349139682949E-04 6.821210263297E-13 0.000000000000E+00
     4.500000000000E+01-1.353125000000E+01 5.465227648668E-09-2.283593543694E+00
    -9.257346391678E-07 5.975872394629E-03 6.521120667458E-06 5.153653202057E+03
     4.248000000000E+05 7.078051567078E-08 2.001143511637E+00-9.313225746155E-08
     9.351879269481E-01 2.418750000000E+02-2.667215060716E+00-8.226056934004E-09
    -4.343038047824E-10 1.000000000000E+00 2.241000000000E+03 0.000000000000E+00
     2.000000000000E+00 0.000000000000E+00 3.725290298462E-09 4.500000000000E+01
     4.176180000000E+05 4.000000000000E+00
G14 2022 12 22 22 00 00-6.354507058859E-05 6.707523425575E-12 0.000000000000E+00
     7.300000000000E+01 1.237500000000E+02 4.326965949786E-09-2.911674766278E+00
     6.409361958504E-06 2.472572610714E-03 1.183338463306E-05 5.153670026779E+03
     4.248000000000E+05-4.284083843231E-08 3.070489081281E+00-4.842877388000E-08
     9.507326603915E-01 1.474687500000E+02-3.059450635839E+00-7.710321165825E-09
    -3.750156209059E-10 1.000000000000E+00 2.241000000000E+03 0.000000000000E+00
     2.000000000000E+00 0.000000000000E+00-7.916241884232E-09 3.290000000000E+02
     4.194180000000E+05 4.000000000000E+00
G05 2022 12 22 22 00 00-1.090955920517E-04-1.477928890381E-12 0.000000000000E+00
     5.100000000000E+01-1.434062500000E+02 4.028739241732E-09 1.000911752609E+00
    -7.368624210358E-06 5.812127375975E-03 1.091323792934E-05 5.153590711594E+03
     4.248000000000E+05-7.823109626770E-08-1.492902691904E-01-1.676380634308E-08
     9.642004597794E-01 1.760625000000E+02 1.139432147637E+00-7.736036522687E-09
     1.485776174256E-10 1.000000000000E+00 2.241000000000E+03 0.000000000000E+00
     2.000000000000E+00 0.000000000000E+00-1.117587089539E-08 5.100000000000E+01
     4.215120000000E+05 4.000000000000E+00
G21 2022 12 22 22 00 00 1.531816087663E-04-9.094947017729E-13 0.000000000000E+00
     6.800000000000E+01-9.953125000000E+01 4.868059917093E-09 6.595555685883E-01
    -5.850568413734E-06 2.465708577074E-02 4.172325134277E-07 5.153668140411E+03
     4.248000000000E+05 1.173466444016E-07-1.236064181709E+00-4.786998033524E-07
     9.610500013273E-01 3.717500000000E+02-8.516031311115E-01-8.835010870809E-09
    -3.032269163325E-10 1.000000000000E+00 2.241000000000E+03 0.000000000000E+00
     2.000000000000E+00 0.000000000000E+00-1.024454832077E-08 6.800000000000E+01
     4.231260000000E+05 4.000000000000E+00
G17 2022 12 22 22 00 00 6.879265420139E-04 2.728484105319E-12 0.000000000000E+00
     4.200000000000E+01 1.332187500000E+02 4.395540234751E-09 6.778152131986E-01
     6.800517439842E-06 1.385370211210E-02 1.732259988785E-06 5.153682729721E+03
     4.248000000000E+05-1.695007085800E-07-2.138020268463E+00-1.452863216400E-07
     9.762999114272E-01 3.575312500000E+02-1.439967694629E+00-8.533926900881E-09
     1.928651764659E-10 1.000000000000E+00 2.241000000000E+03 0.000000000000E+00
     2.000000000000E+00 0.000000000000E+00-1.117587089539E-08 4.200000000000E+01
     4.247580000000E+05 4.000000000000E+00
G07 2022 12 23 00 00 00 2.704742364585E-04-5.570655048359E-12 0.000000000000E+00
     6.300000000000E+01-1.237500000000E+01 5.108784229941E-09-1.109047191376E+00
    -4.060566425323E-07 1.653052982874E-02 6.176531314850E-06 5.153597135544E+03
     4.320000000000E+05 3.129243850708E-07 1.992611414984E+00 3.371387720108E-07
     9.500460968448E-01 2.510625000000E+02-2.233491076200E+00-8.161768541849E-09
    -4.775198906202E-10 1.000000000000E+00 2.241000000000E+03 0.000000000000E+00
     2.000000000000E+00 0.000000000000E+00-1.117587089539E-08 6.300000000000E+01
     4.248180000000E+05 4.000000000000E+00
G08 2022 12 23 00 00 00-9.995698928833E-05-1.818989403546E-12 0.000000000000E+00
     3.500000000000E+01 1.437500000000E+02 4.571976155444E-09 1.765344047037E+00
     7.675960659981E-06 8.018660359085E-03 2.954155206680E-06 5.153642967224E+03
     4.320000000000E+05 1.117587089539E-08-2.224724685902E+00 2.067536115646E-07
     9.609266524636E-01 3.217812500000E+02 1.788870680959E-01-8.358919611125E-09
     1.614352958566E-10 1.000000000000E+00 2.241000000000E+03 0.000000000000E+00
     2.000000000000E+00 0.000000000000E+00 5.122274160385E-09 3.500000000000E+01
     4.248180000000E+05 4.000000000000E+00
G09 2022 12 23 00 00 00-2.490822225809E-04 6.252776074689E-12 0.000000000000E+00
     8.100000000000E+01 1.553125000000E+01 4.796628370253E-09 2.091764209050E+00
     8.530914783478E-07 2.638904494233E-03 7.562339305878E-06 5.153693389893E+03
     4.320000000000E+05 2.235174179077E-08 9.205284769174E-01 4.470348358154E-08
     9.551478832061E-01 2.290625000000E+02 1.949979151407E+00-7.939973588913E-09
     6.828855877829E-10 1.000000000000E+00 2.241000000000E+03 0.000000000000E+00
     2.000000000000E+00 0.000000000000E+00 9.313225746155E-10 8.100000000000E+01
     4.248180000000E+05 4.000000000000E+00
G30 2022 12 23 00 00 00-5.349088460207E-04 6.821210263297E-13 0.000000000000E+00
     4.800000000000E+01-1.350000000000E+01 5.408796726665E-09-1.233408818622E+00
    -7.823109626770E-07 5.975921754725E-03 6.206333637238E-06 5.153653015137E+03
     4.320000000000E+05 1.396983861923E-07 2.001084285398E+00-3.352761268616E-08
     9.351848577459E-01 2.427500000000E+02-2.667199719094E+00-8.254272395006E-09
    -4.364467511876E-10 1.000000000000E+00 2.241000000000E+03 0.000000000000E+00
     2.000000000000E+00 0.000000000000E+00 3.725290298462E-09 4.800000000000E+01
     4.248180000000E+05 4.000000000000E+00
G14 2022 12 23 00 00 00-6.349664181471E-05 6.707523425575E-12 0.000000000000E+00
     7.400000000000E+01 1.073437500000E+02 4.400183285296E-09-1.862298854965E+00
     5.507841706276E-06 2.473979140632E-03 1.139193773270E-05 5.153665531158E+03
     4.320000000000E+05 1.862645149231E-08 3.070433250475E+00-6.332993507385E-08
     9.507299671593E-01 1.565312500000E+02-3.058643681449E+00-7.742108204169E-09
    -3.375140588153E-10 1.000000000000E+00 2.241000000000E+03 0.000000000000E+00
     2.000000000000E+00 0.000000000000E+00-7.916241884232E-09 3.300000000000E+02
     4.248180000000E+05 4.000000000000E+00
G27 2022 12 23 00 00 00 1.461715437472E-04-9.890754881781E-12 0.000000000000E+00
     1.850000000000E+02 1.446562500000E+02 4.415541067866E-09 1.756247770175E+00
     7.489696145058E-06 1.097909710370E-02 2.838671207428E-06 5.153668449402E+03
     4.320000000000E+05-2.998858690262E-07-2.202694052489E+00 9.872019290924E-08
     9.697398941762E-01 3.295000000000E+02 6.850612819750E-01-8.274273228121E-09
     2.517962026082E-10 1.000000000000E+00 2.241000000000E+03 0.000000000000E+00
     2.800000000000E+00 0.000000000000E+00 1.396983861923E-09 1.850000000000E+02
     4.248180000000E+05 4.000000000000E+00
